[
  {
    "COMMENT": "GENERATED VIA SPACETRACK.ORG API",
    "ORIGINATOR": "18 SPCS",
    "NORAD_CAT_ID": "26997",
    "OBJECT_NAME": "JASON",
    "OBJECT_TYPE": "PAYLOAD",
    "CLASSIFICATION_TYPE": "U",
    "INTLDES": "01055A",
    "EPOCH": "2023-05-12 12:34:39",
    "EPOCH_MICROSECONDS": "972864",
    "MEAN_MOTION": "12.84022088",
    "ECCENTRICITY": "0.000682",
    "INCLINATION": "66.0398",
    "RA_OF_ASC_NODE": "277.6973",
    "ARG_OF_PERICENTER": "264.2847",
    "MEAN_ANOMALY": "220.9329",
    "EPHEMERIS_TYPE": "0",
    "ELEMENT_SET_NO": "999",
    "REV_AT_EPOCH": "333",
    "BSTAR": "0.000091054",
    "MEAN_MOTION_DOT": "-0.0000004",
    "MEAN_MOTION_DDOT": "0",
    "FILE": "3905921",
    "TLE_LINE0": "0 JASON",
    "TLE_LINE1": "1 26997U 01055A   23132.52407376 -.00000040  00000-0  91054-4 0  9997",
    "TLE_LINE2": "2 26997  66.0398 277.6973 0006820 264.2847 220.9329 12.84022088  3338",
    "OBJECT_ID": "2001-055A",
    "OBJECT_NUMBER": "26997",
    "SEMIMAJOR_AXIS": "7703.478",
    "PERIOD": "112.148",
    "APOGEE": "1330.597",
    "PERIGEE": "1320.089",
    "DECAYED": "0"
  },
  {
    "COMMENT": "GENERATED VIA SPACETRACK.ORG API",
    "ORIGINATOR": "18 SPCS",
    "NORAD_CAT_ID": "26997",
    "OBJECT_NAME": "JASON",
    "OBJECT_TYPE": "PAYLOAD",
    "CLASSIFICATION_TYPE": "U",
    "INTLDES": "01055A",
    "EPOCH": "2023-05-12 20:14:13",
    "EPOCH_MICROSECONDS": "768224",
    "MEAN_MOTION": "12.8402211",
    "ECCENTRICITY": "0.0006817",
    "INCLINATION": "66.0398",
    "RA_OF_ASC_NODE": "277.0306",
    "ARG_OF_PERICENTER": "264.3416",
    "MEAN_ANOMALY": "255.9544",
    "EPHEMERIS_TYPE": "0",
    "ELEMENT_SET_NO": "999",
    "REV_AT_EPOCH": "337",
    "BSTAR": "0.00010545",
    "MEAN_MOTION_DOT": "-0.00000036",
    "MEAN_MOTION_DDOT": "0",
    "FILE": "3906381",
    "TLE_LINE0": "0 JASON",
    "TLE_LINE1": "1 26997U 01055A   23132.84321491 -.00000036  00000-0  10545-3 0  9995",
    "TLE_LINE2": "2 26997  66.0398 277.0306 0006817 264.3416 255.9544 12.84022110  3378",
    "OBJECT_ID": "2001-055A",
    "OBJECT_NUMBER": "26997",
    "SEMIMAJOR_AXIS": "7703.478",
    "PERIOD": "112.148",
    "APOGEE": "1330.594",
    "PERIGEE": "1320.091",
    "DECAYED": "0"
  },
  {
    "COMMENT": "GENERATED VIA SPACETRACK.ORG API",
    "ORIGINATOR": "18 SPCS",
    "NORAD_CAT_ID": "26997",
    "OBJECT_NAME": "JASON",
    "OBJECT_TYPE": "PAYLOAD",
    "CLASSIFICATION_TYPE": "U",
    "INTLDES": "01055A",
    "EPOCH": "2023-05-13 14:29:55",
    "EPOCH_MICROSECONDS": "414176",
    "MEAN_MOTION": "12.84022136",
    "ECCENTRICITY": "0.0006825",
    "INCLINATION": "66.0399",
    "RA_OF_ASC_NODE": "275.4411",
    "ARG_OF_PERICENTER": "264.2531",
    "MEAN_ANOMALY": "172.9361",
    "EPHEMERIS_TYPE": "0",
    "ELEMENT_SET_NO": "999",
    "REV_AT_EPOCH": "347",
    "BSTAR": "0.000074702",
    "MEAN_MOTION_DOT": "-0.00000044",
    "MEAN_MOTION_DDOT": "0",
    "FILE": "3906915",
    "TLE_LINE0": "0 JASON",
    "TLE_LINE1": "1 26997U 01055A   23133.60411359 -.00000044  00000-0  74702-4 0  9998",
    "TLE_LINE2": "2 26997  66.0399 275.4411 0006825 264.2531 172.9361 12.84022136  3478",
    "OBJECT_ID": "2001-055A",
    "OBJECT_NUMBER": "26997",
    "SEMIMAJOR_AXIS": "7703.478",
    "PERIOD": "112.148",
    "APOGEE": "1330.600",
    "PERIGEE": "1320.085",
    "DECAYED": "0"
  },
  {
    "COMMENT": "GENERATED VIA SPACETRACK.ORG API",
    "ORIGINATOR": "18 SPCS",
    "NORAD_CAT_ID": "26997",
    "OBJECT_NAME": "JASON",
    "OBJECT_TYPE": "PAYLOAD",
    "CLASSIFICATION_TYPE": "U",
    "INTLDES": "01055A",
    "EPOCH": "2023-05-13 20:18:13",
    "EPOCH_MICROSECONDS": "847904",
    "MEAN_MOTION": "12.8402215",
    "ECCENTRICITY": "0.0006828",
    "INCLINATION": "66.0399",
    "RA_OF_ASC_NODE": "274.9358",
    "ARG_OF_PERICENTER": "264.2709",
    "MEAN_ANOMALY": "210.8939",
    "EPHEMERIS_TYPE": "0",
    "ELEMENT_SET_NO": "999",
    "REV_AT_EPOCH": "374",
    "BSTAR": "0.000070334",
    "MEAN_MOTION_DOT": "-0.00000045",
    "MEAN_MOTION_DDOT": "0",
    "FILE": "3906997",
    "TLE_LINE0": "0 JASON",
    "TLE_LINE1": "1 26997U 01055A   23133.84599361 -.00000045  00000-0  70334-4 0  9992",
    "TLE_LINE2": "2 26997  66.0399 274.9358 0006828 264.2709 210.8939 12.84022150  3741",
    "OBJECT_ID": "2001-055A",
    "OBJECT_NUMBER": "26997",
    "SEMIMAJOR_AXIS": "7703.478",
    "PERIOD": "112.148",
    "APOGEE": "1330.603",
    "PERIGEE": "1320.083",
    "DECAYED": "0"
  },
  {
    "COMMENT": "GENERATED VIA SPACETRACK.ORG API",
    "ORIGINATOR": "18 SPCS",
    "NORAD_CAT_ID": "26997",
    "OBJECT_NAME": "JASON",
    "OBJECT_TYPE": "PAYLOAD",
    "CLASSIFICATION_TYPE": "U",
    "INTLDES": "01055A",
    "EPOCH": "2023-05-13 20:18:13",
    "EPOCH_MICROSECONDS": "847904",
    "MEAN_MOTION": "12.8402215",
    "ECCENTRICITY": "0.0006828",
    "INCLINATION": "66.0399",
    "RA_OF_ASC_NODE": "274.9358",
    "ARG_OF_PERICENTER": "264.2709",
    "MEAN_ANOMALY": "210.8939",
    "EPHEMERIS_TYPE": "0",
    "ELEMENT_SET_NO": "999",
    "REV_AT_EPOCH": "350",
    "BSTAR": "0.000070334",
    "MEAN_MOTION_DOT": "-0.00000045",
    "MEAN_MOTION_DDOT": "0",
    "FILE": "3907148",
    "TLE_LINE0": "0 JASON",
    "TLE_LINE1": "1 26997U 01055A   23133.84599361 -.00000045  00000-0  70334-4 0  9992",
    "TLE_LINE2": "2 26997  66.0399 274.9358 0006828 264.2709 210.8939 12.84022150  3505",
    "OBJECT_ID": "2001-055A",
    "OBJECT_NUMBER": "26997",
    "SEMIMAJOR_AXIS": "7703.478",
    "PERIOD": "112.148",
    "APOGEE": "1330.603",
    "PERIGEE": "1320.083",
    "DECAYED": "0"
  },
  {
    "COMMENT": "GENERATED VIA SPACETRACK.ORG API",
    "ORIGINATOR": "18 SPCS",
    "NORAD_CAT_ID": "26997",
    "OBJECT_NAME": "JASON",
    "OBJECT_TYPE": "PAYLOAD",
    "CLASSIFICATION_TYPE": "U",
    "INTLDES": "01055A",
    "EPOCH": "2023-05-14 14:48:49",
    "EPOCH_MICROSECONDS": "255200",
    "MEAN_MOTION": "12.84022122",
    "ECCENTRICITY": "0.0006825",
    "INCLINATION": "66.0399",
    "RA_OF_ASC_NODE": "273.3249",
    "ARG_OF_PERICENTER": "264.2672",
    "MEAN_ANOMALY": "175.6029",
    "EPHEMERIS_TYPE": "0",
    "ELEMENT_SET_NO": "999",
    "REV_AT_EPOCH": "360",
    "BSTAR": "0.000012278",
    "MEAN_MOTION_DOT": "-0.00000059",
    "MEAN_MOTION_DDOT": "0",
    "FILE": "3907744",
    "TLE_LINE0": "0 JASON",
    "TLE_LINE1": "1 26997U 01055A   23134.61723675 -.00000059  00000-0  12278-4 0  9993",
    "TLE_LINE2": "2 26997  66.0399 273.3249 0006825 264.2672 175.6029 12.84022122  3601",
    "OBJECT_ID": "2001-055A",
    "OBJECT_NUMBER": "26997",
    "SEMIMAJOR_AXIS": "7703.478",
    "PERIOD": "112.148",
    "APOGEE": "1330.600",
    "PERIGEE": "1320.085",
    "DECAYED": "0"
  },
  {
    "COMMENT": "GENERATED VIA SPACETRACK.ORG API",
    "ORIGINATOR": "18 SPCS",
    "NORAD_CAT_ID": "26997",
    "OBJECT_NAME": "JASON",
    "OBJECT_TYPE": "PAYLOAD",
    "CLASSIFICATION_TYPE": "U",
    "INTLDES": "01055A",
    "EPOCH": "2023-05-14 20:50:39",
    "EPOCH_MICROSECONDS": "88608",
    "MEAN_MOTION": "12.84022137",
    "ECCENTRICITY": "0.0006828",
    "INCLINATION": "66.0399",
    "RA_OF_ASC_NODE": "272.8",
    "ARG_OF_PERICENTER": "264.2379",
    "MEAN_ANOMALY": "257.0143",
    "EPHEMERIS_TYPE": "0",
    "ELEMENT_SET_NO": "999",
    "REV_AT_EPOCH": "363",
    "BSTAR": "0.000021439",
    "MEAN_MOTION_DOT": "-0.00000056",
    "MEAN_MOTION_DDOT": "0",
    "FILE": "3908005",
    "TLE_LINE0": "0 JASON",
    "TLE_LINE1": "1 26997U 01055A   23134.86850797 -.00000056  00000-0  21439-4 0  9992",
    "TLE_LINE2": "2 26997  66.0399 272.8000 0006828 264.2379 257.0143 12.84022137  3638",
    "OBJECT_ID": "2001-055A",
    "OBJECT_NUMBER": "26997",
    "SEMIMAJOR_AXIS": "7703.478",
    "PERIOD": "112.148",
    "APOGEE": "1330.603",
    "PERIGEE": "1320.083",
    "DECAYED": "0"
  },
  {
    "COMMENT": "GENERATED VIA SPACETRACK.ORG API",
    "ORIGINATOR": "18 SPCS",
    "NORAD_CAT_ID": "26997",
    "OBJECT_NAME": "JASON",
    "OBJECT_TYPE": "PAYLOAD",
    "CLASSIFICATION_TYPE": "U",
    "INTLDES": "01055A",
    "EPOCH": "2023-05-15 13:16:32",
    "EPOCH_MICROSECONDS": "765664",
    "MEAN_MOTION": "12.8402199",
    "ECCENTRICITY": "0.0006826",
    "INCLINATION": "66.0388",
    "RA_OF_ASC_NODE": "271.3702",
    "ARG_OF_PERICENTER": "264.2601",
    "MEAN_ANOMALY": "181.4568",
    "EPHEMERIS_TYPE": "0",
    "ELEMENT_SET_NO": "999",
    "REV_AT_EPOCH": "372",
    "BSTAR": "-0.000072685",
    "MEAN_MOTION_DOT": "-0.00000079",
    "MEAN_MOTION_DDOT": "0",
    "FILE": "3908681",
    "TLE_LINE0": "0 JASON",
    "TLE_LINE1": "1 26997U 01055A   23135.55315701 -.00000079  00000-0 -72685-4 0  9995",
    "TLE_LINE2": "2 26997  66.0388 271.3702 0006826 264.2601 181.4568 12.84021990  3722",
    "OBJECT_ID": "2001-055A",
    "OBJECT_NUMBER": "26997",
    "SEMIMAJOR_AXIS": "7703.478",
    "PERIOD": "112.148",
    "APOGEE": "1330.602",
    "PERIGEE": "1320.085",
    "DECAYED": "0"
  },
  {
    "COMMENT": "GENERATED VIA SPACETRACK.ORG API",
    "ORIGINATOR": "18 SPCS",
    "NORAD_CAT_ID": "26997",
    "OBJECT_NAME": "JASON",
    "OBJECT_TYPE": "PAYLOAD",
    "CLASSIFICATION_TYPE": "U",
    "INTLDES": "01055A",
    "EPOCH": "2023-05-15 17:05:11",
    "EPOCH_MICROSECONDS": "697216",
    "MEAN_MOTION": "12.8402203",
    "ECCENTRICITY": "0.0006832",
    "INCLINATION": "66.0389",
    "RA_OF_ASC_NODE": "271.0385",
    "ARG_OF_PERICENTER": "264.2629",
    "MEAN_ANOMALY": "195.3574",
    "EPHEMERIS_TYPE": "0",
    "ELEMENT_SET_NO": "999",
    "REV_AT_EPOCH": "374",
    "BSTAR": "-0.0000165",
    "MEAN_MOTION_DOT": "-0.00000066",
    "MEAN_MOTION_DDOT": "0",
    "FILE": "3908892",
    "TLE_LINE0": "0 JASON",
    "TLE_LINE1": "1 26997U 01055A   23135.71194094 -.00000066  00000-0 -16500-4 0  9993",
    "TLE_LINE2": "2 26997  66.0389 271.0385 0006832 264.2629 195.3574 12.84022030  3743",
    "OBJECT_ID": "2001-055A",
    "OBJECT_NUMBER": "26997",
    "SEMIMAJOR_AXIS": "7703.478",
    "PERIOD": "112.148",
    "APOGEE": "1330.606",
    "PERIGEE": "1320.080",
    "DECAYED": "0"
  }
]